[{"OBJECT_NAME":"STARLINK-2099","OBJECT_ID":"2021-005AG","EPOCH":"2026-03-09T05:25:23.086560","MEAN_MOTION":15.30188698,"ECCENTRICITY":0.00013497,"INCLINATION":53.1612,"RA_OF_ASC_NODE":15.6956,"ARG_OF_PERICENTER":92.1215,"MEAN_ANOMALY":267.9941,"EPHEMERIS_TYPE":0,"CLASSIFICATION_TYPE":"U","NORAD_CAT_ID":47379,"ELEMENT_SET_NO":999,"REV_AT_EPOCH":28365,"BSTAR":2.4152043e-5,"MEAN_MOTION_DOT":3.56e-6,"MEAN_MOTION_DDOT":0},{"OBJECT_NAME":"ICEYE-X31","OBJECT_ID":"2023-174AJ","EPOCH":"2026-03-09T23:06:20.433600","MEAN_MOTION":15.30950809,"ECCENTRICITY":0.00015021,"INCLINATION":97.3851,"RA_OF_ASC_NODE":144.9524,"ARG_OF_PERICENTER":332.6589,"MEAN_ANOMALY":27.4572,"EPHEMERIS_TYPE":0,"CLASSIFICATION_TYPE":"U","NORAD_CAT_ID":58288,"ELEMENT_SET_NO":999,"REV_AT_EPOCH":12955,"BSTAR":0.00066288467,"MEAN_MOTION_DOT":0.00019777,"MEAN_MOTION_DDOT":0}]
